{
  "norad_id": 65067,
  "name": "STARLINK-34802",
  "history": [
    {
      "epoch": "2026-03-28T22:10:51.314592",
      "apogee_km": 550.1005476420551,
      "perigee_km": 548.9016505926229,
      "latitude_deg": 25.782195370578826,
      "longitude_deg": 55.423682879889384,
      "semi_major_axis_km": 6927.638099117339,
      "eccentricity": 8.653e-05,
      "inclination_deg": 97.6023,
      "raan_deg": 166.1742,
      "arg_perigee_deg": 176.8347,
      "mean_anomaly_deg": 183.2886,
      "mean_motion_rev_day": 15.05653278
    },
    {
      "epoch": "2026-03-29T04:33:39.206304",
      "apogee_km": 550.07095861988,
      "perigee_km": 548.8904925594388,
      "latitude_deg": 61.18486710306856,
      "longitude_deg": 80.94356256001629,
      "semi_major_axis_km": 6927.617725589659,
      "eccentricity": 8.52e-05,
      "inclination_deg": 97.6026,
      "raan_deg": 166.4361,
      "arg_perigee_deg": 173.346,
      "mean_anomaly_deg": 186.7778,
      "mean_motion_rev_day": 15.0565992
    }
  ]
}